LEMUR-2-JENNYBARNA      
1 42753U 17019C   17272.52788184  .00007189  00000-0  27109-3 0  9998
2 42753  51.6381 260.3646 0010812 359.3970   0.6995 15.28067284 17181
LEMUR-2-ROBMOORE        
1 42754U 17019D   17272.53941756  .00004607  00000-0  17984-3 0  9998
2 42754  51.6390 260.4365 0011054   2.4809 357.6223 15.27798922 17220
LEMUR-2-SPIROVISION     
1 42755U 17019E   17272.60006137  .00006441  00000-0  24498-3 0  9998
2 42755  51.6382 260.0915 0010990   2.6832 357.4205 15.27966376 17122
UCLSAT                  
1 42765U 17036A   17272.70338533  .00003627  00000-0  16652-3 0  9993
2 42765  97.4394 331.2960 0010402 268.6238  91.3806 15.21004963 15103
LITUANICASAT-2          
1 42768U 17036D   17273.10280424  .00006220  00000-0  29077-3 0  9993
2 42768  97.4398 331.5284 0014734 254.3320 105.6290 15.20046205 15030
LEMUR-2-SHAINAJOHL      
1 42771U 17036G   17273.15916588  .00004385  00000-0  20561-3 0  9998
2 42771  97.4395 331.6065 0013802 253.6440 106.3278 15.20123997 14980
LEMUR-2-XUENITERENCE    
1 42772U 17036H   17272.23438854  .00005120  00000-0  23932-3 0  9995
2 42772  97.4394 330.7011 0013424 256.7923 103.1814 15.20152285 14849
LEMUR-2-LUCYBRYCE       
1 42773U 17036J   17272.22985082  .00006494  00000-0  30155-3 0  9995
2 42773  97.4396 330.7077 0013210 255.8660 104.1107 15.20280468 14846
LEMUR-2-KUNGFOO         
1 42774U 17036K   17272.23018317  .00005337  00000-0  24885-3 0  9993
2 42774  97.4379 330.7101 0013599 257.4550 102.5158 15.20219998 14839
AALTO-1                 
1 42775U 17036L   17272.22717692  .00003256  00000-0  15336-3 0  9994
2 42775  97.4373 330.7090 0013187 256.9056 103.0721 15.20165381 14848
URSA MAIOR              
1 42776U 17036M   17273.14618353  .00002731  00000-0  12898-3 0  9998
2 42776  97.4396 331.6274 0012722 252.2113 107.7734 15.20213657 14985
COMPASS 2               
1 42777U 17036N   17272.40177881  .00005637  00000-0  25958-3 0  9992
2 42777  97.4406 330.9522 0011714 259.4582 100.5334 15.20643632 14869
LEMUR-2-LYNSEY-SYMO     
1 42779U 17036Q   17272.12509980  .00006754  00000-0  30822-3 0  9999
2 42779  97.4401 330.6996 0011189 267.7892  92.2062 15.20884354 14818
LEMUR-2-LISASAURUS      
1 42780U 17036R   17272.71703774  .00004942  00000-0  22672-3 0  9994
2 42780  97.4398 331.2809 0011098 265.6777  94.3191 15.20840484 14916
LEMUR-2-SAM-AMELIA      
1 42781U 17036S   17272.71418116  .00005942  00000-0  27124-3 0  9996
2 42781  97.4398 331.2835 0011018 265.7373  94.2603 15.20928651 14900
LEMUR-2-MCPEAKE         
1 42782U 17036T   17272.71234940  .00005871  00000-0  26778-3 0  9993
2 42782  97.4399 331.2883 0010899 265.2863  94.7128 15.20963099 14902
DIAMOND RED             
1 42783U 17036U   17272.84607311  .00001896  00000-0  89044-4 0  9993
2 42783  97.4394 331.4130 0011028 267.7045  92.2928 15.20799499 14934
PEGASUS                 
1 42784U 17036V   17273.10686445  .00003922  00000-0  18048-3 0  9996
2 42784  97.4397 331.6774 0010936 266.7136  93.2849 15.20865882 14978
DIAMOND GREEN           
1 42785U 17036W   17272.97656998  .00003649  00000-0  16854-3 0  9990
2 42785  97.4398 331.5470 0010870 267.3918  92.6073 15.20782203 14948
DIAMOND BLUE            
1 42786U 17036X   17272.71112092  .00001400  00000-0  66615-4 0  9999
2 42786  97.4396 331.2893 0010739 269.1551  90.8454 15.20778977 14902
NUDTSAT                 
1 42787U 17036Y   17272.83431617  .00005299  00000-0  24112-3 0  9995
2 42787  97.4398 331.4294 0010569 267.7653  92.2373 15.21095623 14772
SUCHAI                  
1 42788U 17036Z   17272.70534041  .00004434  00000-0  20283-3 0  9992
2 42788  97.4396 331.2951 0010572 268.4016  91.6008 15.20999448 14982
SKCUBE                  
1 42789U 17036AA  17272.30826604  .00004644  00000-0  21218-3 0  9990
2 42789  97.4395 330.9073 0010389 270.1343  89.8702 15.21019665 14842
VZLUSAT-1               
1 42790U 17036AB  17272.23692365  .00005426  00000-0  24653-3 0  9994
2 42790  97.4393 330.8468 0010121 270.6980  89.3096 15.21137814 14832
ROBUSTA-1B              
1 42792U 17036AD  17273.08962648  .00004045  00000-0  18452-3 0  9990
2 42792  97.4392 331.6940 0009982 268.2748  91.7344 15.21157869 14975
CICERO 6                
1 42793U 17036AE  17273.14417344  .00002890  00000-0  13234-3 0  9995
2 42793  97.4391 331.7727 0009056 269.4890  90.5308 15.21269132 15056
D-SAT                   
1 42794U 17036AF  17272.61381022  .00002460  00000-0  11302-3 0  9997
2 42794  97.4389 331.2555 0008204 268.1233  91.9064 15.21304911 14899
TOKI                    
1 42820U 98067MU  17272.30165288  .00033141  00000-0  44726-3 0  9996
2 42820  51.6381 238.1992 0001492 283.1840  76.8986 15.57470519 13066
GHANASAT-1              
1 42821U 98067MV  17273.01077941  .00027249  00000-0  37002-3 0  9995
2 42821  51.6381 234.6850 0001561 290.7124  69.3700 15.57410408 13159
MAZAALAI (NUMSAT-1)     
1 42822U 98067MW  17272.81902287  .00026229  00000-0  35650-3 0  9997
2 42822  51.6381 235.6549 0001602 294.0322  66.0502 15.57407978 13128
BRAC ONNESHA            
1 42823U 98067MX  17272.43595418  .00032587  00000-0  44138-3 0  9995
2 42823  51.6383 237.5989 0005143 304.3390  55.7115 15.57371342 13067
NIGERIAEDUSAT-1         
1 42824U 98067MY  17273.14506634  .00029669  00000-0  40304-3 0  9995
2 42824  51.6384 234.0849 0004995 308.9453  51.1093 15.57342765 13163
LEMUR-2-GREENBERG       
1 42837U 17042N   17272.57862561  .00001531  00000-0  15979-3 0  9991
2 42837  97.6080 179.5397 0013282 352.0846   8.0162 14.91083083 11513
LEMUR-2-ANDIS           
1 42838U 17042P   17272.57744030  .00001374  00000-0  14384-3 0  9996
2 42838  97.6080 179.5407 0013338 352.1449   7.9559 14.91103551 11519
LEMUR-2-MONSON          
1 42839U 17042Q   17272.57243671  .00001044  00000-0  11047-3 0  9999
2 42839  97.6079 179.5467 0012997 351.2451   8.8539 14.91182109 11511
LEMUR-2-FURIAUS         
1 42840U 17042R   17272.77191475  .00001592  00000-0  16530-3 0  9997
2 42840  97.6078 179.7425 0013135 351.0016   9.0966 14.91239256 11533
LEMUR-2-PETERG          
1 42841U 17042S   17273.16762850  .00002101  00000-0  21569-3 0  9998
2 42841  97.6077 180.1404 0012687 348.8680  11.2256 14.91371173 11608
LEMUR-2-DEMBITZ         
1 42842U 17042T   17272.56264162  .00001668  00000-0  17232-3 0  9994
2 42842  97.6078 179.5580 0012804 350.9849   9.1138 14.91390977 11517
LEMUR-2-ZACHARY         
1 42845U 17042W   17272.81940809  .00001191  00000-0  12393-3 0  9998
2 42845  97.6028 179.7795 0013219 354.9221   5.1862 14.91598444 11546
FLOCK 2K-03             
1 42850U 17042AB  17272.70411600  .00016463  00000-0  50959-3 0  9992
2 42850  96.9952 177.5416 0011617 347.6711  12.4247 15.33471319 11668
FLOCK 2K-04             
1 42851U 17042AC  17272.51051761  .00019950  00000-0  61788-3 0  9996
2 42851  96.9956 177.3557 0011423 349.6401  10.4605 15.33415959 11631
FLOCK 2K-01             
1 42852U 17042AD  17272.50927549  .00019920  00000-0  61684-3 0  9994
2 42852  96.9955 177.3567 0011250 349.0786  11.0211 15.33424432 11636
FLOCK 2K-02             
1 42853U 17042AE  17273.16652844  .00005050  00000-0  16102-3 0  9995
2 42853  96.9960 177.9719 0011378 344.3732  15.7158 15.32882157 11731
FLOCK 2K-47             
1 42854U 17042AF  17272.50681248  .00020393  00000-0  63104-3 0  9994
2 42854  96.9953 177.3577 0011076 347.9471  12.1505 15.33444488 11632
FLOCK 2K-48             
1 42855U 17042AG  17272.50637634  .00020097  00000-0  62079-3 0  9996
2 42855  96.9956 177.3612 0011044 348.4823  11.6166 15.33503713 11632
FLOCK 2K-45             
1 42856U 17042AH  17272.50480359  .00021130  00000-0  65245-3 0  9994
2 42856  96.9953 177.3616 0011071 347.3629  12.7335 15.33506075 11630
FLOCK 2K-24             
1 42857U 17042AJ  17272.43849504  .00019444  00000-0  60070-3 0  9994
2 42857  96.9951 177.2998 0010830 347.4862  12.6111 15.33507091 11622
FLOCK 2K-46             
1 42858U 17042AK  17272.69870903  .00016577  00000-0  51146-3 0  9998
2 42858  96.9956 177.5520 0010999 346.3939  13.7007 15.33578689 11662
FLOCK 2K-23             
1 42859U 17042AL  17272.69782888  .00017018  00000-0  52489-3 0  9995
2 42859  96.9954 177.5521 0011090 346.4386  13.6558 15.33582999 11661
FLOCK 2K-21             
1 42860U 17042AM  17272.50031049  .00022639  00000-0  69649-3 0  9994
2 42860  96.9953 177.3686 0010957 346.2045  13.8898 15.33610137 11635
FLOCK 2K-22             
1 42861U 17042AN  17272.70081553  .00017449  00000-0  54439-3 0  9996
2 42861  96.9956 177.5495 0011143 343.8350  16.2537 15.33213625 11660
FLOCK 2K-07             
1 42862U 17042AP  17272.69443213  .00016828  00000-0  51883-3 0  9990
2 42862  96.9953 177.5564 0011118 344.9440  15.1471 15.33598091 11678
FLOCK 2K-08             
1 42863U 17042AQ  17272.62704400  .00014722  00000-0  45390-3 0  9999
2 42863  96.9948 177.4941 0011155 345.2024  14.8891 15.33624474 11659
FLOCK 2K-05             
1 42864U 17042AR  17272.69300818  .00016596  00000-0  51211-3 0  9992
2 42864  96.9955 177.5575 0011185 344.2012  15.8881 15.33572685 11668
FLOCK 2K-40             
1 42865U 17042AS  17272.16832150  .00022628  00000-0  69506-3 0  9993
2 42865  96.9952 177.0658 0011309 346.2509  13.8425 15.33655545 11584
FLOCK 2K-39             
1 42866U 17042AT  17272.69097003  .00016901  00000-0  52020-3 0  9992
2 42866  96.9952 177.5601 0011151 344.8829  15.2080 15.33650699 11669
FLOCK 2K-37             
1 42867U 17042AU  17272.68895808  .00011521  00000-0  35459-3 0  9991
2 42867  96.9955 177.5621 0011237 344.8357  15.2548 15.33735073 11665
FLOCK 2K-38             
1 42868U 17042AV  17272.16516506  .00025507  00000-0  77995-3 0  9990
2 42868  96.9952 177.0703 0011379 346.6219  13.4721 15.33775823 11584
FLOCK 2K-31             
1 42869U 17042AW  17272.68505841  .00017702  00000-0  54112-3 0  9992
2 42869  96.9954 177.5666 0011227 343.4835  16.6042 15.33858764 11667
